0 COSMOS 2251 DEB
1 34021U 93036HG  24033.85534712  .00001716  00000-0  48932-3 0  9992
2 34021  74.0415 320.5601 0023056 269.3489 147.0372 14.45840670788036
0 COSMOS 2251 DEB
1 34019U 93036HE  24032.88429694  .00002443  00000-0  96045-3 0  9999
2 34019  73.9565 215.9550 0066077 185.1293 243.1094 14.28614702777926
0 COSMOS 2251 DEB
1 34018U 93036HD  24033.76377834  .00000608  00000-0  46750-3 0  9993
2 34018  73.8788 161.4595 0270038 321.9924 153.6701 13.79534527752889
0 COSMOS 2251 DEB
1 34015U 93036HA  24032.39898785  .00003751  00000-0  99695-3 0  9999
2 34015  74.0311   7.6420 0032114 268.2279 217.9681 14.48648146786378
0 COSMOS 2251 DEB
1 34014U 93036GZ  24033.73724495  .00004837  00000-0  98615-3 0  9990
2 34014  74.0224 152.4463 0046889 102.6817  16.7276 14.60547614793464
0 COSMOS 2251 DEB
1 34011U 93036GW  24033.74257950  .00002252  00000-0  78334-3 0  9990
2 34011  74.0183 143.9794 0042891  28.9806 331.3714 14.35512686781692
0 COSMOS 2251 DEB
1 34010U 93036GV  24033.84842176  .00010896  00000-0  19914-2 0  9991
2 34010  74.0197 196.3664 0022355 130.8744 229.4366 14.65819964791986
0 COSMOS 2251 DEB
1 34009U 93036GU  24032.41805932  .00000433  00000-0  16975-3 0  9991
2 34009  74.0378 139.2429 0027985  13.6541  61.9830 14.32195326782020
0 COSMOS 2251 DEB
1 34008U 93036GT  24032.42516576  .00000384  00000-0  15145-3 0  9997
2 34008  74.0348 133.0248 0025079 294.8989 144.1334 14.32290476782258
0 COSMOS 2251 DEB
1 34007U 93036GS  24032.47082421  .00004232  00000-0  95517-3 0  9995
2 34007  74.0222 207.3362 0054651 150.2393 210.1899 14.55680250791485
0 COSMOS 2251 DEB
1 34006U 93036GR  24032.43161503  .00009330  00000-0  21379-2 0  9997
2 34006  74.0693  26.1642 0022784 200.7005 281.3475 14.55532710786534
0 COSMOS 2251 DEB
1 34005U 93036GQ  24032.05917669  .00000511  00000-0  17287-3 0  9992
2 34005  74.0458  30.2854 0021720 316.4001 100.4817 14.39247848785901
0 COSMOS 2251 DEB
1 34004U 93036GP  24033.64600551  .00003835  00000-0  12316-2 0  9995
2 34004  74.0381 136.9810 0039878 320.8823  38.9449 14.39289995782255
0 COSMOS 2251 DEB
1 34003U 93036GN  24032.83427501  .00001927  00000-0  13805-2 0  9990
2 34003  74.0848 344.9980 0296065 255.7449 101.0629 13.78871380750382
0 COSMOS 2251 DEB
1 34001U 93036GL  24033.20234556  .00000512  00000-0  18623-3 0  9999
2 34001  74.0382  89.7727 0021478 336.8834  78.6813 14.35644719783916
0 COSMOS 2251 DEB
1 34000U 93036GK  24032.80794002  .00031403  00000-0  39083-2 0  9995
2 34000  74.0342 163.2959 0019052  38.4579 121.1383 14.82241170793432
0 COSMOS 2251 DEB
1 33999U 93036GJ  24033.66816545  .00007524  00000-0  14439-2 0  9998
2 33999  73.9316 122.3571 0061962 174.3621 185.8258 14.62637931792538
0 COSMOS 2251 DEB
1 33995U 93036GE  24032.08466725  .00001964  00000-0  76679-3 0  9997
2 33995  74.0647 279.1296 0066943 105.0543 255.8027 14.29048347777755
0 COSMOS 2251 DEB
1 33994U 93036GD  24033.91117108  .00000442  00000-0  14722-3 0  9998
2 33994  74.0450   5.7647 0024370 307.7732  85.6757 14.40308956786430
0 COSMOS 2251 DEB
1 33993U 93036GC  24032.72043592  .00055260  00000-0  43445-2 0  9991
2 33993  74.0014  55.7207 0025938 333.2025  26.7820 15.00312464796357
0 COSMOS 2251 DEB
1 33992U 93036GB  24033.88357674  .00004630  00000-0  10169-2 0  9999
2 33992  74.0264 197.5837 0063981 125.5004 349.0272 14.56561747792062
0 COSMOS 2251 DEB
1 33990U 93036FZ  24033.17414736  .00000916  00000-0  89910-3 0  9996
2 33990  73.9297 295.4073 0410989  82.3638  38.3942 13.48204639735840
0 COSMOS 2251 DEB
1 33989U 93036FY  24033.94794751  .00024579  00000-0  28748-2 0  9999
2 33989  74.0165  21.9017 0030071 343.5977  16.4226 14.84672669797766
0 COSMOS 2251 DEB
1 33986U 93036FV  24032.32947574  .00001962  00000-0  65446-3 0  9998
2 33986  74.0383 121.1654 0046513   1.4520  65.2450 14.37589215782821
0 COSMOS 2251 DEB
1 33984U 93036FT  24033.86404330  .00004771  00000-0  10879-2 0  9994
2 33984  74.0123 207.4616 0028093 208.3149 271.9732 14.55856625791499
0 COSMOS 2251 DEB
1 33983U 93036FS  24033.28463363  .00002083  00000-0  59119-3 0  9995
2 33983  74.0548 338.6367 0025025 250.5977 228.8878 14.45893224787985
0 COSMOS 2251 DEB
1 33982U 93036FR  24033.95176153  .00002054  00000-0  46461-3 0  9990
2 33982  74.0718 207.8631 0083029  71.3217  89.1785 14.54722902792680
0 COSMOS 2251 DEB
1 33981U 93036FQ  24032.73941855  .00144876  00000-0  36151-2 0  9996
2 33981  73.8160 307.1518 0029371 171.7951 188.3742 15.39111028807862
0 COSMOS 2251 DEB
1 33980U 93036FP  24033.71649875  .00002206  00000-0  55940-3 0  9999
2 33980  74.0242 266.0834 0034254 214.3628 209.1385 14.51105853789181
0 COSMOS 2251 DEB
1 33975U 93036FJ  24032.46711933  .00000975  00000-0  59404-3 0  9999
2 33975  73.8010 198.2948 0195130  86.4121 275.9303 13.98399403763295
0 COSMOS 2251 DEB
1 33973U 93036FG  24033.88459737  .00000458  00000-0  14011-3 0  9996
2 33973  74.0090 289.1641 0048273 270.1186 171.3323 14.44069414787961
0 COSMOS 2251 DEB
1 33972U 93036FF  24032.89390225  .00004586  00000-0  17399-2 0  9998
2 33972  73.9999 352.7152 0143221 315.8719  73.6439 14.25849367773473
0 COSMOS 2251 DEB
1 33971U 93036FE  24033.52433163  .00000914  00000-0  31412-3 0  9991
2 33971  74.0247  66.8702 0020354 330.1007 182.1355 14.37386250783738
0 IRIDIUM 33 DEB
1 33966U 97051CB  24033.39586728  .00002487  00000-0  71856-3 0  9990
2 33966  86.3977 336.2138 0006641 329.5605 153.7668 14.44253101786431
0 IRIDIUM 33 DEB
1 33965U 97051CA  24033.70919863  .00017107  00000-0  27179-2 0  9997
2 33965  86.3577 293.8708 0007140 291.6873  68.3583 14.71994891790270
0 IRIDIUM 33 DEB
1 33960U 97051BV  24033.01235569  .00005764  00000-0  12542-2 0  9994
2 33960  86.2665 241.6983 0001487 222.3707 267.3566 14.57867805788922
0 IRIDIUM 33 DEB
1 33959U 97051BU  24033.86948976  .00029669  00000-0  62778-2 0  9994
2 33959  86.3575 354.5997 0066779  26.1030 334.3519 14.57722305780520
0 IRIDIUM 33 DEB
1 33953U 97051BN  24032.36889670  .00003712  00000-0  10613-2 0  9999
2 33953  86.3948 346.3049 0019842 204.6380 280.1804 14.44776917784911
0 IRIDIUM 33 DEB
1 33952U 97051BM  24033.62764894  .00034355  00000-0  33615-2 0  9992
2 33952  86.3376 266.8300 0005909 183.0208 177.0985 14.92152650792816
0 COSMOS 2251 DEB
1 33948U 93036FD  24032.88500788  .00000548  00000-0  20403-3 0  9992
2 33948  74.0358 111.2192 0024324 352.2995   7.7780 14.34227152782718
0 COSMOS 2251 DEB
1 33945U 93036FA  24033.63878722  .00000374  00000-0  14400-3 0  9996
2 33945  74.0296 109.7015 0023259 359.3728   0.7390 14.33592058782809
0 COSMOS 2251 DEB
1 33944U 93036EZ  24032.93715486  .00000783  00000-0  26380-3 0  9998
2 33944  74.0410 117.3840 0117692  23.3243  92.8472 14.34858999782681
0 COSMOS 2251 DEB
1 33942U 93036EX  24032.60192694  .00000703  00000-0  24943-3 0  9995
2 33942  74.0361  85.7866 0021923 334.9105 177.2629 14.36205298783637
0 COSMOS 2251 DEB
1 33940U 93036EV  24033.28095448  .00004088  00000-0  10895-2 0  9997
2 33940  74.0476 347.1925 0017888 235.2998 246.3347 14.48687424787403
0 COSMOS 2251 DEB
1 33939U 93036EU  24033.90304013  .00008824  00000-0  19629-2 0  9991
2 33939  74.0261 329.8542 0019704 206.1818 153.8351 14.56963859787418
0 COSMOS 2251 DEB
1 33938U 93036ET  24033.10710167  .00002128  00000-0  65133-3 0  9996
2 33938  74.0487  31.8094 0020296 281.4430 149.4214 14.42286885785962
0 COSMOS 2251 DEB
1 33936U 93036ER  24033.63162113  .00002577  00000-0  63604-3 0  9993
2 33936  74.0196 247.5791 0033007 205.9985 153.9520 14.52312319790023
0 COSMOS 2251 DEB
1 33935U 93036EQ  24033.47548917  .00021117  00000-0  25568-2 0  9991
2 33935  73.9988  59.5289 0033514 357.0638   3.0337 14.83195767796217
0 COSMOS 2251 DEB
1 33934U 93036EP  24033.89193143  .00002938  00000-0  75920-3 0  9991
2 33934  74.0429 305.2140 0020936 231.6310 128.2970 14.50268430788668
0 COSMOS 2251 DEB
1 33933U 93036EN  24032.93495309  .00000920  00000-0  34837-3 0  9994
2 33933  74.0879 216.8558 0074724  40.3583 320.3078 14.30988894780518
0 COSMOS 2251 DEB
1 33932U 93036EM  24033.64842220  .00001410  00000-0  49724-3 0  9996
2 33932  74.0351 125.1591 0039148   6.9350 353.2336 14.35262316782425
0 COSMOS 2251 DEB
1 33931U 93036EL  24032.91359942  .00018768  00000-0  22562-2 0  9992
2 33931  74.0181 204.3324 0177761 103.1353 258.9723 14.73218364791232
0 COSMOS 2251 DEB
1 33930U 93036EK  24033.88359668  .00014564  00000-0  27660-2 0  9997
2 33930  74.0221 330.8080 0017802 162.3462 254.3019 14.64100907787727
0 COSMOS 2251 DEB
1 33928U 93036EH  24033.27190629  .00000867  00000-0  25175-3 0  9998
2 33928  73.9241 249.2980 0063618 332.1880  27.5879 14.44746450788275
0 COSMOS 2251 DEB
1 33924U 93036ED  24033.79354242  .00000619  00000-0  61409-3 0  9999
2 33924  73.9139 280.0411 0407740  79.7254 284.9551 13.48560513735800
0 COSMOS 2251 DEB
1 33922U 93036EB  24032.26090508  .00002093  00000-0  60058-3 0  9997
2 33922  74.0523 339.6643 0026738 257.7757 217.9949 14.45331375787315
0 COSMOS 2251 DEB
1 33920U 93036DZ  24033.70042519  .00004633  00000-0  13643-2 0  9993
2 33920  74.0672 133.4055 0050514 317.9818  41.7468 14.43188753782661
0 COSMOS 2251 DEB
1 33919U 93036DY  24032.49519498  .00018229  00000-0  26360-2 0  9997
2 33919  74.0443 180.1531 0024443  55.0319 305.3145 14.75933874792660
0 COSMOS 2251 DEB
1 33917U 93036DW  24033.74863498  .00000874  00000-0  72143-3 0  9994
2 33917  74.1060 153.0353 0344660  52.8638 310.3438 13.66096536744493
0 COSMOS 2251 DEB
1 33916U 93036DV  24032.55558503  .00000389  00000-0  33685-3 0  9998
2 33916  74.0507  77.0562 0326851  39.0869 115.2310 13.67274332745898
0 COSMOS 2251 DEB
1 33915U 93036DU  24033.84415918  .00001814  00000-0  64797-3 0  9994
2 33915  74.0438 194.8685 0112138  92.9438  21.2772 14.31350475780303
0 COSMOS 2251 DEB
1 33914U 93036DT  24032.48754288  .00000617  00000-0  51433-3 0  9991
2 33914  74.0890  55.0300 0311087 314.7713 214.6237 13.70485431747569
0 COSMOS 2251 DEB
1 33913U 93036DS  24032.39365588  .00002727  00000-0  80030-3 0  9990
2 33913  74.0379  13.5247 0054370 283.0325 194.4212 14.43453045786226
